[{"OBJECT_NAME":"STARLINK-5864","OBJECT_ID":"2023-037AC","EPOCH":"2026-03-09T21:53:20.184288","MEAN_MOTION":14.98316778,"ECCENTRICITY":0.0002723,"INCLINATION":69.998,"RA_OF_ASC_NODE":283.8894,"ARG_OF_PERICENTER":269.3008,"MEAN_ANOMALY":90.7839,"EPHEMERIS_TYPE":0,"CLASSIFICATION_TYPE":"U","NORAD_CAT_ID":55940,"ELEMENT_SET_NO":999,"REV_AT_EPOCH":16401,"BSTAR":5.7458998e-5,"MEAN_MOTION_DOT":5.92e-6,"MEAN_MOTION_DDOT":0},{"OBJECT_NAME":"CZ-6A DEB","OBJECT_ID":"2024-140NC","EPOCH":"2026-03-09T01:19:44.598720","MEAN_MOTION":14.85954551,"ECCENTRICITY":0.01874643,"INCLINATION":89.0262,"RA_OF_ASC_NODE":281.6645,"ARG_OF_PERICENTER":160.2054,"MEAN_ANOMALY":200.6578,"EPHEMERIS_TYPE":0,"CLASSIFICATION_TYPE":"U","NORAD_CAT_ID":61086,"ELEMENT_SET_NO":999,"REV_AT_EPOCH":8276,"BSTAR":0.00091551765,"MEAN_MOTION_DOT":0.00011041,"MEAN_MOTION_DDOT":0}]
